{"type": "FeatureCollection", "features": [ {"type": "Feature", "properties": {"norad_id": 32432, "name": "FENGYUN 1C DEB", "group": "fengyun-1c-debris", "lat": 46.656646227262186, "lon": 12.91228268427742, "alt_km": 727.7931937999892, "timestamp": "2025-12-11T10:53:16.174140+00:00", "meta": {"OBJECT_NAME": "FENGYUN 1C DEB", "OBJECT_ID": "1999-025DAU", "EPOCH": "2025-12-09T20:38:44.334240", "MEAN_MOTION": 14.52408247, "ECCENTRICITY": 0.01728801, "INCLINATION": 98.1713, "RA_OF_ASC_NODE": 20.1171, "ARG_OF_PERICENTER": 314.6341, "MEAN_ANOMALY": 44.0865, "EPHEMERIS_TYPE": 0, "CLASSIFICATION_TYPE": "U", "NORAD_CAT_ID": 32432, "ELEMENT_SET_NO": 999, "REV_AT_EPOCH": 70653, "BSTAR": 0.0021857962, "MEAN_MOTION_DOT": 0.00010799, "MEAN_MOTION_DDOT": 0}, "tle": {"line1": "1 32432U 99025DAU 25343.86023535  .00010799  00000+0  21858-2 0  9999", "line2": "2 32432  98.1713  20.1171 0172880 314.6341  44.0865 14.52408247706530"}}, "geometry": {"type": "Point", "coordinates": [12.91228268427742, 46.656646227262186]}}, {"type": "Feature", "properties": {"norad_id": 32440, "name": "FENGYUN 1C DEB", "group": "fengyun-1c-debris", "lat": 53.10171132172174, "lon": -171.6270358591202, "alt_km": 840.526221559694, "timestamp": "2025-12-11T10:53:16.174150+00:00", "meta": {"OBJECT_NAME": "FENGYUN 1C DEB", "OBJECT_ID": "1999-025DBC", "EPOCH": "2025-12-10T08:10:09.004800", "MEAN_MOTION": 13.61236458, "ECCENTRICITY": 0.03217312, "INCLINATION": 99.1535, "RA_OF_ASC_NODE": 199.7288, "ARG_OF_PERICENTER": 97.09, "MEAN_ANOMALY": 266.6938, "EPHEMERIS_TYPE": 0, "CLASSIFICATION_TYPE": "U", "NORAD_CAT_ID": 32440, "ELEMENT_SET_NO": 999, "REV_AT_EPOCH": 60253, "BSTAR": 0.0037130678, "MEAN_MOTION_DOT": 3.952e-05, "MEAN_MOTION_DDOT": 0}, "tle": {"line1": "1 32440U 99025DBC 25344.34038200  .00003952  00000+0  37131-2 0  9991", "line2": "2 32440  99.1535 199.7288 0321731  97.0900 266.6938 13.61236458602538"}}, "geometry": {"type": "Point", "coordinates": [-171.6270358591202, 53.10171132172174]}}, {"type": "Feature", "properties": {"norad_id": 32447, "name": "FENGYUN 1C DEB", "group": "fengyun-1c-debris", "lat": 36.73366317056843, "lon": -171.63928078016508, "alt_km": 912.4877216938603, "timestamp": "2025-12-11T10:53:16.174161+00:00", "meta": {"OBJECT_NAME": "FENGYUN 1C DEB", "OBJECT_ID": "1999-025DBK", "EPOCH": "2025-12-09T20:22:18.261408", "MEAN_MOTION": 13.96013309, "ECCENTRICITY": 0.00800272, "INCLINATION": 98.9313, "RA_OF_ASC_NODE": 0.0649, "ARG_OF_PERICENTER": 49.1812, "MEAN_ANOMALY": 311.6255, "EPHEMERIS_TYPE": 0, "CLASSIFICATION_TYPE": "U", "NORAD_CAT_ID": 32447, "ELEMENT_SET_NO": 999, "REV_AT_EPOCH": 67838, "BSTAR": 0.00036340481, "MEAN_MOTION_DOT": 4.69e-06, "MEAN_MOTION_DDOT": 0}, "tle": {"line1": "1 32447U 99025DBK 25343.84882247  .00000469  00000+0  36340-3 0  9992", "line2": "2 32447  98.9313   0.0649 0080027  49.1812 311.6255 13.96013309678386"}}, "geometry": {"type": "Point", "coordinates": [-171.63928078016508, 36.73366317056843]}}, {"type": "Feature", "properties": {"norad_id": 32451, "name": "FENGYUN 1C DEB", "group": "fengyun-1c-debris", "lat": -29.96838168357014, "lon": 139.32661469721057, "alt_km": 813.6782176913493, "timestamp": "2025-12-11T10:53:16.174172+00:00", "meta": {"OBJECT_NAME": "FENGYUN 1C DEB", "OBJECT_ID": "1999-025DBP", "EPOCH": "2025-12-10T16:33:24.310944", "MEAN_MOTION": 13.86555843, "ECCENTRICITY": 0.01853918, "INCLINATION": 99.9715, "RA_OF_ASC_NODE": 324.3351, "ARG_OF_PERICENTER": 200.3659, "MEAN_ANOMALY": 159.0033, "EPHEMERIS_TYPE": 0, "CLASSIFICATION_TYPE": "U", "NORAD_CAT_ID": 32451, "ELEMENT_SET_NO": 999, "REV_AT_EPOCH": 61736, "BSTAR": 0.002736046, "MEAN_MOTION_DOT": 3.589e-05, "MEAN_MOTION_DDOT": 0}, "tle": {"line1": "1 32451U 99025DBP 25344.68986471  .00003589  00000+0  27360-2 0  9991", "line2": "2 32451  99.9715 324.3351 0185391 200.3659 159.0033 13.86555843617362"}}, "geometry": {"type": "Point", "coordinates": [139.32661469721057, -29.96838168357014]}}, {"type": "Feature", "properties": {"norad_id": 32453, "name": "FENGYUN 1C DEB", "group": "fengyun-1c-debris", "lat": 52.338712432121625, "lon": -117.23392544441978, "alt_km": 945.1345994894582, "timestamp": "2025-12-11T10:53:16.174183+00:00", "meta": {"OBJECT_NAME": "FENGYUN 1C DEB", "OBJECT_ID": "1999-025DBR", "EPOCH": "2025-12-08T00:25:48.424512", "MEAN_MOTION": 14.02237877, "ECCENTRICITY": 0.00963849, "INCLINATION": 99.3721, "RA_OF_ASC_NODE": 251.5904, "ARG_OF_PERICENTER": 219.2534, "MEAN_ANOMALY": 140.1615, "EPHEMERIS_TYPE": 0, "CLASSIFICATION_TYPE": "U", "NORAD_CAT_ID": 32453, "ELEMENT_SET_NO": 999, "REV_AT_EPOCH": 93362, "BSTAR": 0.001014222, "MEAN_MOTION_DOT": 1.571e-05, "MEAN_MOTION_DDOT": 0}, "tle": {"line1": "1 32453U 99025DBR 25342.01792158  .00001571  00000+0  10142-2 0  9994", "line2": "2 32453  99.3721 251.5904 0096384 219.2534 140.1615 14.02237877933624"}}, "geometry": {"type": "Point", "coordinates": [-117.23392544441978, 52.338712432121625]}}, {"type": "Feature", "properties": {"norad_id": 32455, "name": "FENGYUN 1C DEB", "group": "fengyun-1c-debris", "lat": 14.21540116870471, "lon": 0.24712653387410793, "alt_km": 755.3634019376304, "timestamp": "2025-12-11T10:53:16.174193+00:00", "meta": {"OBJECT_NAME": "FENGYUN 1C DEB", "OBJECT_ID": "1999-025DBT", "EPOCH": "2025-12-10T06:30:54.892224", "MEAN_MOTION": 13.92434496, "ECCENTRICITY": 0.0236385, "INCLINATION": 101.7338, "RA_OF_ASC_NODE": 175.7348, "ARG_OF_PERICENTER": 151.4137, "MEAN_ANOMALY": 210.0212, "EPHEMERIS_TYPE": 0, "CLASSIFICATION_TYPE": "U", "NORAD_CAT_ID": 32455, "ELEMENT_SET_NO": 999, "REV_AT_EPOCH": 64381, "BSTAR": 0.0038826, "MEAN_MOTION_DOT": 6.223e-05, "MEAN_MOTION_DDOT": 0}, "tle": {"line1": "1 32455U 99025DBT 25344.27146866  .00006223  00000+0  38826-2 0  9993", "line2": "2 32455 101.7338 175.7348 0236385 151.4137 210.0212 13.92434496643813"}}, "geometry": {"type": "Point", "coordinates": [0.24712653387410793, 14.21540116870471]}}, {"type": "Feature", "properties": {"norad_id": 32456, "name": "FENGYUN 1C DEB", "group": "fengyun-1c-debris", "lat": -54.28952015792034, "lon": 145.1718503755906, "alt_km": 1050.561595224648, "timestamp": "2025-12-11T10:53:16.174204+00:00", "meta": {"OBJECT_NAME": "FENGYUN 1C DEB", "OBJECT_ID": "1999-025DBU", "EPOCH": "2025-12-07T15:29:29.480640", "MEAN_MOTION": 13.3560312, "ECCENTRICITY": 0.03795662, "INCLINATION": 103.6664, "RA_OF_ASC_NODE": 120.3053, "ARG_OF_PERICENTER": 235.7459, "MEAN_ANOMALY": 120.7155, "EPHEMERIS_TYPE": 0, "CLASSIFICATION_TYPE": "U", "NORAD_CAT_ID": 32456, "ELEMENT_SET_NO": 999, "REV_AT_EPOCH": 60548, "BSTAR": 0.0033121081, "MEAN_MOTION_DOT": 2.469e-05, "MEAN_MOTION_DDOT": 0}, "tle": {"line1": "1 32456U 99025DBU 25341.64548010  .00002469  00000+0  33121-2 0  9990", "line2": "2 32456 103.6664 120.3053 0379566 235.7459 120.7155 13.35603120605481"}}, "geometry": {"type": "Point", "coordinates": [145.1718503755906, -54.28952015792034]}}, {"type": "Feature", "properties": {"norad_id": 32458, "name": "FENGYUN 1C DEB", "group": "fengyun-1c-debris", "lat": 73.49819228877969, "lon": -142.25236312283107, "alt_km": 676.7231980350516, "timestamp": "2025-12-11T10:53:16.174214+00:00", "meta": {"OBJECT_NAME": "FENGYUN 1C DEB", "OBJECT_ID": "1999-025DBW", "EPOCH": "2025-12-08T06:52:15.068064", "MEAN_MOTION": 14.62160146, "ECCENTRICITY": 0.00405564, "INCLINATION": 99.046, "RA_OF_ASC_NODE": 1.7508, "ARG_OF_PERICENTER": 27.6994, "MEAN_ANOMALY": 332.6353, "EPHEMERIS_TYPE": 0, "CLASSIFICATION_TYPE": "U", "NORAD_CAT_ID": 32458, "ELEMENT_SET_NO": 999, "REV_AT_EPOCH": 67724, "BSTAR": 0.0019224362, "MEAN_MOTION_DOT": 9.742e-05, "MEAN_MOTION_DDOT": 0}, "tle": {"line1": "1 32458U 99025DBW 25342.28628551  .00009742  00000+0  19224-2 0  9991", "line2": "2 32458  99.0460   1.7508 0040556  27.6994 332.6353 14.62160146677242"}}, "geometry": {"type": "Point", "coordinates": [-142.25236312283107, 73.49819228877969]}}, {"type": "Feature", "properties": {"norad_id": 32459, "name": "FENGYUN 1C DEB", "group": "fengyun-1c-debris", "lat": -79.96772176099871, "lon": 124.08466605601244, "alt_km": 712.0038814760046, "timestamp": "2025-12-11T10:53:16.174224+00:00", "meta": {"OBJECT_NAME": "FENGYUN 1C DEB", "OBJECT_ID": "1999-025DBX", "EPOCH": "2025-12-10T18:41:41.819136", "MEAN_MOTION": 14.42793421, "ECCENTRICITY": 0.02131784, "INCLINATION": 98.3025, "RA_OF_ASC_NODE": 359.0584, "ARG_OF_PERICENTER": 192.2812, "MEAN_ANOMALY": 167.3135, "EPHEMERIS_TYPE": 0, "CLASSIFICATION_TYPE": "U", "NORAD_CAT_ID": 32459, "ELEMENT_SET_NO": 999, "REV_AT_EPOCH": 94522, "BSTAR": 0.00080448392, "MEAN_MOTION_DOT": 3.48e-05, "MEAN_MOTION_DDOT": 0}, "tle": {"line1": "1 32459U 99025DBX 25344.77895624  .00003480  00000+0  80448-3 0  9995", "line2": "2 32459  98.3025 359.0584 0213178 192.2812 167.3135 14.42793421945228"}}, "geometry": {"type": "Point", "coordinates": [124.08466605601244, -79.96772176099871]}}, {"type": "Feature", "properties": {"norad_id": 32460, "name": "FENGYUN 1C DEB", "group": "fengyun-1c-debris", "lat": -14.184569594530966, "lon": -51.24031722983281, "alt_km": 878.4975665752181, "timestamp": "2025-12-11T10:53:16.174235+00:00", "meta": {"OBJECT_NAME": "FENGYUN 1C DEB", "OBJECT_ID": "1999-025DBY", "EPOCH": "2025-12-07T16:06:34.298784", "MEAN_MOTION": 13.89549583, "ECCENTRICITY": 0.01857937, "INCLINATION": 98.0182, "RA_OF_ASC_NODE": 127.5395, "ARG_OF_PERICENTER": 138.2427, "MEAN_ANOMALY": 223.3085, "EPHEMERIS_TYPE": 0, "CLASSIFICATION_TYPE": "U", "NORAD_CAT_ID": 32460, "ELEMENT_SET_NO": 999, "REV_AT_EPOCH": 65183, "BSTAR": 0.0019975298, "MEAN_MOTION_DOT": 2.774e-05, "MEAN_MOTION_DDOT": 0}, "tle": {"line1": "1 32460U 99025DBY 25341.67123031  .00002774  00000+0  19975-2 0  9990", "line2": "2 32460  98.0182 127.5395 0185793 138.2427 223.3085 13.89549583651838"}}, "geometry": {"type": "Point", "coordinates": [-51.24031722983281, -14.184569594530966]}}]}